CUTE-1 (CO-55)          
1 27844U 03031E   26131.01616769  .00000204  00000+0  10731-3 0  9991
2 27844  98.6748 140.0418 0008393 297.0013  63.0309 14.24312209186387
CUBESAT XI-IV (CO-57)   
1 27848U 03031J   26130.98602781  .00000166  00000+0  92161-4 0  9994
2 27848  98.6780 139.7545 0008567 317.9241  42.1279 14.23600467186087
CUBESAT XI-V            
1 28895U 05043F   26131.16667363  .00000861  00000+0  14371-3 0  9998
2 28895  98.2944 286.0224 0013247 327.3724  32.6663 14.72532410 96302
CUTE-1.7+APD II (CO-65) 
1 32785U 08021C   26131.18755762  .00002730  00000+0  17633-3 0  9994
2 32785  97.8261 111.8524 0009927 145.2461 214.9417 15.09096632979613
CANX-2                  
1 32790U 08021H   26131.20030601  .00002225  00000+0  15971-3 0  9993
2 32790  97.8629 110.2730 0010962 159.1318 201.0357 15.05352607979247
SEEDS II (CO-66)        
1 32791U 08021J   26130.97235940  .00011027  00000+0  36525-3 0  9998
2 32791  97.7530 127.1344 0005072  88.5832 271.5989 15.31474077981597
SWISSCUBE               
1 35932U 09051B   26131.15387530  .00000632  00000+0  13476-3 0  9996
2 35932  98.4059  38.3953 0006336 339.8683  20.2267 14.62408150883748
BEESAT-1                
1 35933U 09051C   26131.00728106  .00000533  00000+0  11694-3 0  9999
2 35933  98.3987  37.9590 0005190 358.3259   1.7923 14.61658137883757
ITUPSAT1                
1 35935U 09051E   26130.69163038  .00000508  00000+0  11516-3 0  9997
2 35935  98.4072  36.8697 0007623   5.6146 354.5137 14.60382828883263
TISAT 1                 
1 36799U 10035E   26130.79614140  .00013199  00000+0  45306-3 0  9990
2 36799  98.0690  74.0785 0003717  57.1556 303.0040 15.30286662861987
AEROCUBE 4.5A           
1 38767U 12048K   26131.18175578  .00117631  00000+0  69101-3 0  9999
2 38767  64.6291 160.1672 0019435 217.5157 142.4642 15.77409153366790
STRAND-1                
1 39090U 13009E   26131.08656574  .00000185  00000+0  76557-4 0  9995
2 39090  98.3917 312.2359 0008320 350.3910   9.7117 14.37140896691733
BRITE-AUSTRIA           
1 39091U 13009F   26131.08352193  .00000110  00000+0  51980-4 0  9997
2 39091  98.3988 311.4394 0010057 358.1458   1.9690 14.36526952691724
NEE-01 PEGASO           
1 39151U 13018B   26130.88227894  .00002147  00000+0  20971-3 0  9997
2 39151  98.1174 273.8161 0011191 288.6937  71.3067 14.93477010705131
POPACS 2                
1 39269U 13055E   26131.12610146  .00009955  00000+0  17088-3 0  9991
2 39269  80.9930 186.5907 0419443 313.0117  43.6645 14.90374797657699
POPACS 3                
1 39270U 13055F   26130.79436909  .00011585  00000+0  27727-3 0  9991
2 39270  81.0002 269.7007 0554988 183.7065 175.9951 14.55199926633116
ZACUBE-1 (TSHEPISOSAT)  
1 39417U 13066B   26131.14341808  .00003157  00000+0  24836-3 0  9993
2 39417  97.8120  93.2797 0042131  17.8518 342.4174 15.00898646675179
WNISAT-1                
1 39423U 13066H   26131.15294561  .00000308  00000+0  65090-4 0  9997
2 39423  97.7157 282.9478 0162827 349.0656  10.7020 14.58016444661334
TRITON-1                
1 39427U 13066M   26131.21917484  .00002094  00000+0  25551-3 0  9995
2 39427  97.8260  41.8684 0090333 355.9086   4.1378 14.81541790668614
GOMX-1                  
1 39430U 13066Q   26131.14073843  .00001400  00000+0  21676-3 0  9997
2 39430  97.6512 333.9391 0128259 195.8918 163.8248 14.69313597664477
CUBEBUG-2 (LO-74)       
1 39440U 13066AA  26131.14980934  .00002328  00000+0  21960-3 0  9992
2 39440  97.8888  79.9863 0058762 148.6845 211.7896 14.93485032671463
NEE-02 KRYSAOR          
1 39441U 13066AB  26130.78378896  .00001045  00000+0  12007-3 0  9997
2 39441  97.8879  70.2742 0065864 191.1009 168.8757 14.86478863670643
FUNCUBE-1 (AO-73)       
1 39444U 13066AE  26131.19361385  .00005682  00000+0  35839-3 0  9990
2 39444  97.8258 101.8861 0035647 332.4449  27.4889 15.09004761674080
UWE-3                   
1 39446U 13066AG  26130.37977211  .00002188  00000+0  19192-3 0  9994
2 39446  97.8682  86.2160 0051084  85.6808 275.0248 14.96709697671925
BRITE-CA1 (TORONTO)     
1 40020U 14033L   26131.14344974  .00000488  00000+0  80945-4 0  9995
2 40020  97.9685 260.7669 0079415  36.3985 324.2586 14.72625573636768
DUCHIFAT-1              
1 40021U 14033M   26131.09784958  .00052397  00000+0  69398-3 0  9994
2 40021  98.0509 185.2613 0005749 192.0264 168.0853 15.58120348649967
NANOSATC-BR1            
1 40024U 14033Q   26131.01225537  .00010543  00000+0  36280-3 0  9993
2 40024  98.0759 160.1389 0002061 337.3328  22.7820 15.30275875648299
QB50P1                  
1 40025U 14033R   26130.97139606  .00005815  00000+0  29220-3 0  9991
2 40025  98.0986 139.5250 0008588   5.5250 354.6075 15.17678552647389
QB50P2                  
1 40032U 14033Y   26130.91263966  .00004488  00000+0  24647-3 0  9993
2 40032  98.0760 125.4895 0005951 311.7807  48.2914 15.14680088647020
PERSEUS-M2              
1 40037U 14033AD  26131.12843654  .00001162  00000+0  11065-3 0  9996
2 40037  97.9937  80.9235 0013098  65.1103 295.1477 14.95391874645241
